{
 "type": "FeatureCollection",
 "event": {
  "id": "ljubljanski-maraton-2026",
  "name": "NLB Ljubljanski maraton 2026",
  "timezone": "Europe/Ljubljana",
  "days": [
   "2026-10-17",
   "2026-10-18"
  ],
  "defaultTime": "2026-10-18T10:00",
  "center": [
   14.505,
   46.058
  ],
  "zoom": 13,
  "source": "https://ljubljanskimaraton.si/info-za-tekace/promet-parkiranja-prevozi-obvozi-zapore/casovnica-zapor-in-prehodi",
  "sourceVersion": "2026.14"
 },
 "features": [
  {
   "type": "Feature",
   "properties": {
    "kind": "closure",
    "name": "Slovenska cesta",
    "note": "med Gosposvetsko in Tivolsko",
    "start": "2026-10-17T06:00",
    "end": "2026-10-17T20:00",
    "length_m": 375
   },
   "geometry": {
    "type": "LineString",
    "coordinates": [
     [
      14.50448901165307,
      46.05439887024723
     ],
     [
      14.50479924618909,
      46.05493390045809
     ],
     [
      14.50596610271353,
      46.05763264662179
     ]
    ]
   }
  },
  {
   "type": "Feature",
   "properties": {
    "kind": "closure",
    "name": "Dunajska cesta",
    "note": "med Tivolsko in Bežigrad",
    "start": "2026-10-17T16:15",
    "end": "2026-10-17T18:30",
    "length_m": 684
   },
   "geometry": {
    "type": "LineString",
    "coordinates": [
     [
      14.50596987117297,
      46.05766735913037
     ],
     [
      14.50845108367691,
      46.06360754570314
     ]
    ]
   }
  },
  {
   "type": "Feature",
   "properties": {
    "kind": "closure",
    "name": "Linhartova cesta",
    "note": "med Dunajsko cesto in Topniško ulico",
    "start": "2026-10-17T16:15",
    "end": "2026-10-17T17:00",
    "length_m": 767
   },
   "geometry": {
    "type": "LineString",
    "coordinates": [
     [
      14.50844807653278,
      46.06360518420711
     ],
     [
      14.50942822687123,
      46.06340543299662
     ],
     [
      14.51008868888145,
      46.06338273031588
     ],
     [
      14.51081722228656,
      46.06345688435276
     ],
     [
      14.51158761358039,
      46.06362094124902
     ],
     [
      14.51289373703663,
      46.06389509284797
     ],
     [
      14.51801494119011,
      46.0649401469962
     ]
    ]
   }
  },
  {
   "type": "Feature",
   "properties": {
    "kind": "closure",
    "name": "Linhartova cesta",
    "note": "med Topniško ulico in Štajersko cesto",
    "start": "2026-10-17T16:15",
    "end": "2026-10-17T17:15",
    "length_m": 670
   },
   "geometry": {
    "type": "LineString",
    "coordinates": [
     [
      14.51800211830328,
      46.06494446383994
     ],
     [
      14.52630833410577,
      46.06665321604806
     ]
    ]
   }
  },
  {
   "type": "Feature",
   "properties": {
    "kind": "closure",
    "name": "Štajerska cesta 1. rondo",
    "note": "med Linhartovo in Kranjčevo ulico",
    "start": "2026-10-17T16:20",
    "end": "2026-10-17T17:20",
    "length_m": 384
   },
   "geometry": {
    "type": "LineString",
    "coordinates": [
     [
      14.52630793838513,
      46.06666013967232
     ],
     [
      14.52630451437969,
      46.06678724648254
     ],
     [
      14.52638064853655,
      46.06690445436904
     ],
     [
      14.52654847692893,
      46.06701132791844
     ],
     [
      14.52582043002811,
      46.06974383630598
     ],
     [
      14.52565512798689,
      46.06988737171198
     ],
     [
      14.52556560431937,
      46.06996510675008
     ]
    ]
   }
  },
  {
   "type": "Feature",
   "properties": {
    "kind": "closure",
    "name": "Štajerska cesta 2. rondo - 3. rondo",
    "note": "med Kranjčevo ulico in Božičevo ulico",
    "start": "2026-10-17T16:20",
    "end": "2026-10-17T17:20",
    "length_m": 600
   },
   "geometry": {
    "type": "LineString",
    "coordinates": [
     [
      14.52558888653389,
      46.06998129894472
     ],
     [
      14.52564033745753,
      46.07007106778796
     ],
     [
      14.52571234681365,
      46.07017655044111
     ],
     [
      14.5253859413917,
      46.07112493905085
     ],
     [
      14.52496708145918,
      46.07232979645772
     ],
     [
      14.52472610309174,
      46.07350269877882
     ],
     [
      14.52463527722971,
      46.07504932301488
     ],
     [
      14.52442588797651,
      46.07527249116434
     ]
    ]
   }
  },
  {
   "type": "Feature",
   "properties": {
    "kind": "closure",
    "name": "Božičeva ulica - Baragova ulica",
    "note": "med Štajerska 3. rondo in Dunajsko cesto",
    "start": "2026-10-17T16:25",
    "end": "2026-10-17T17:30",
    "length_m": 974
   },
   "geometry": {
    "type": "LineString",
    "coordinates": [
     [
      14.52437917125126,
      46.07530276015965
     ],
     [
      14.51948945742219,
      46.07579748682103
     ],
     [
      14.51625083153408,
      46.07618766235186
     ],
     [
      14.51193254959253,
      46.0766755315132
     ]
    ]
   }
  },
  {
   "type": "Feature",
   "properties": {
    "kind": "closure",
    "name": "Dunajska cesta",
    "note": "med Baragovo in Bevkovo cesto",
    "start": "2026-10-17T16:25",
    "end": "2026-10-17T17:40",
    "length_m": 804
   },
   "geometry": {
    "type": "LineString",
    "coordinates": [
     [
      14.5119333747811,
      46.0766667350424
     ],
     [
      14.51292350489081,
      46.08103264164608
     ],
     [
      14.51362116979322,
      46.08384217994311
     ]
    ]
   }
  },
  {
   "type": "Feature",
   "properties": {
    "kind": "closure",
    "name": "Bevkova cesta",
    "note": "med Dunajsko cesto in Slovenčevo ulico",
    "start": "2026-10-17T16:25",
    "end": "2026-10-17T17:50",
    "length_m": 467
   },
   "geometry": {
    "type": "LineString",
    "coordinates": [
     [
      14.51356150877343,
      46.08386766041546
     ],
     [
      14.51204384572925,
      46.08390581885354
     ],
     [
      14.51082797091996,
      46.08390530562841
     ],
     [
      14.50754335540239,
      46.08415625711695
     ]
    ]
   }
  },
  {
   "type": "Feature",
   "properties": {
    "kind": "closure",
    "name": "Slovenčeva ulica",
    "note": "med Bevkovo cesto in Triglavsko ulico",
    "start": "2026-10-17T16:25",
    "end": "2026-10-17T18:00",
    "length_m": 1190
   },
   "geometry": {
    "type": "LineString",
    "coordinates": [
     [
      14.50755529065291,
      46.08415370570494
     ],
     [
      14.5074897816183,
      46.08296355384118
     ],
     [
      14.50698578518485,
      46.08056828716737
     ],
     [
      14.50668939549606,
      46.07943376289159
     ],
     [
      14.50593765685776,
      46.07747538689663
     ],
     [
      14.50417937670694,
      46.07370286349726
     ]
    ]
   }
  },
  {
   "type": "Feature",
   "properties": {
    "kind": "closure",
    "name": "Podmilščakova ulica",
    "note": "med Triglavsko ulico in Samovo ulico",
    "start": "2026-10-17T16:25",
    "end": "2026-10-17T18:10",
    "length_m": 816
   },
   "geometry": {
    "type": "LineString",
    "coordinates": [
     [
      14.50416972412241,
      46.07369221240435
     ],
     [
      14.50407975763979,
      46.07336107520609
     ],
     [
      14.50364699083064,
      46.07040047676032
     ],
     [
      14.50359111885933,
      46.06997355493293
     ],
     [
      14.50345608018165,
      46.06933846922851
     ],
     [
      14.50309190186107,
      46.06756707581993
     ],
     [
      14.50294529338627,
      46.06714193368335
     ],
     [
      14.50283960556915,
      46.06637662175619
     ]
    ]
   }
  },
  {
   "type": "Feature",
   "properties": {
    "kind": "closure",
    "name": "Parmova ulica",
    "note": "med Samovo ulico in Bežigrad",
    "start": "2026-10-17T16:25",
    "end": "2026-10-17T18:20",
    "length_m": 305
   },
   "geometry": {
    "type": "LineString",
    "coordinates": [
     [
      14.50282732295307,
      46.06629580724063
     ],
     [
      14.50282350250307,
      46.06597801966542
     ],
     [
      14.50286701419172,
      46.06571192245719
     ],
     [
      14.50303986414164,
      46.06531808992451
     ],
     [
      14.50332947220541,
      46.06470762233729
     ],
     [
      14.50391385207462,
      46.06366514147462
     ]
    ]
   }
  },
  {
   "type": "Feature",
   "properties": {
    "kind": "closure",
    "name": "Bežigrad",
    "note": "med Parmovo ulico in Dunajsko cesto",
    "start": "2026-10-17T16:25",
    "end": "2026-10-17T18:30",
    "length_m": 352
   },
   "geometry": {
    "type": "LineString",
    "coordinates": [
     [
      14.50392729962457,
      46.06365690931865
     ],
     [
      14.50497101207874,
      46.06384988648136
     ],
     [
      14.50646516414155,
      46.06391545584878
     ],
     [
      14.50664557411034,
      46.0639177663772
     ],
     [
      14.50838698540382,
      46.06361135209069
     ]
    ]
   }
  },
  {
   "type": "Feature",
   "properties": {
    "kind": "closure",
    "name": "Dunajska cesta",
    "note": "med Bežigrad in Tivolsko cesto",
    "start": "2026-10-17T16:25",
    "end": "2026-10-17T18:40",
    "length_m": 678
   },
   "geometry": {
    "type": "LineString",
    "coordinates": [
     [
      14.50836838217595,
      46.06359814532616
     ],
     [
      14.50700672725775,
      46.06027534153058
     ],
     [
      14.50589147695947,
      46.05771509638111
     ]
    ]
   }
  },
  {
   "type": "Feature",
   "properties": {
    "kind": "closure",
    "name": "Slovenska cesta",
    "note": "med Gosposvetsko in Aškerčevo",
    "start": "2026-10-17T16:25",
    "end": "2026-10-17T23:59",
    "length_m": 937
   },
   "geometry": {
    "type": "LineString",
    "coordinates": [
     [
      14.50447608453915,
      46.05436458840434
     ],
     [
      14.50413455852612,
      46.05382706762622
     ],
     [
      14.50369915438302,
      46.052882647239
     ],
     [
      14.50347681741204,
      46.05239439080897
     ],
     [
      14.50282387411627,
      46.05075634749319
     ],
     [
      14.50272550246203,
      46.05042469118995
     ],
     [
      14.50257115432502,
      46.05006694262811
     ],
     [
      14.50235458260004,
      46.04960570094469
     ],
     [
      14.50197924726739,
      46.04904194155196
     ],
     [
      14.50142743768149,
      46.04816642361837
     ],
     [
      14.50134763940024,
      46.04779884275892
     ],
     [
      14.50126670449245,
      46.04733821830419
     ],
     [
      14.50097724911694,
      46.04628610512357
     ]
    ]
   }
  },
  {
   "type": "Feature",
   "properties": {
    "kind": "closure",
    "name": "Aljaževa ulica",
    "note": "med Drenikovo in Goriško",
    "start": "2026-10-18T08:45",
    "end": "2026-10-18T11:15",
    "length_m": 421
   },
   "geometry": {
    "type": "LineString",
    "coordinates": [
     [
      14.49480379956288,
      46.06720601274422
     ],
     [
      14.49508256037729,
      46.06794189860004
     ],
     [
      14.49547179695066,
      46.06904040906153
     ],
     [
      14.49614126834622,
      46.07089693565649
     ]
    ]
   }
  },
  {
   "type": "Feature",
   "properties": {
    "kind": "closure",
    "name": "Aškerčeva cesta",
    "note": "med Tržaško in Zoisovo",
    "start": "2026-10-18T05:00",
    "end": "2026-10-18T15:00",
    "length_m": 466
   },
   "geometry": {
    "type": "LineString",
    "coordinates": [
     [
      14.49519348232422,
      46.04745528221833
     ],
     [
      14.49567246134256,
      46.04744190217312
     ],
     [
      14.49618079275275,
      46.04725703321972
     ],
     [
      14.4973773792292,
      46.04697929553168
     ],
     [
      14.49888790826457,
      46.04667786614047
     ],
     [
      14.50096465697059,
      46.04629294517296
     ]
    ]
   }
  },
  {
   "type": "Feature",
   "properties": {
    "kind": "closure",
    "name": "Božičeva ulica - Baragova ulica",
    "note": "med Štajerska 3. rondo in Dunajsko cesto",
    "start": "2026-10-18T10:30",
    "end": "2026-10-18T14:45",
    "length_m": 964
   },
   "geometry": {
    "type": "LineString",
    "coordinates": [
     [
      14.52433038597716,
      46.0753183804589
     ],
     [
      14.5195126878295,
      46.07580598446608
     ],
     [
      14.51631807711058,
      46.07615313338647
     ],
     [
      14.5120129150163,
      46.07666690799031
     ]
    ]
   }
  },
  {
   "type": "Feature",
   "properties": {
    "kind": "closure",
    "name": "Cesta 7. septembra",
    "note": "med Dunajsko cesto in Slovenčevo ulico",
    "start": "2026-10-18T08:45",
    "end": "2026-10-18T11:00",
    "length_m": 466
   },
   "geometry": {
    "type": "LineString",
    "coordinates": [
     [
      14.5138209364856,
      46.0895170023884
     ],
     [
      14.51138458569727,
      46.08961982165955
     ],
     [
      14.50784469988697,
      46.09001944037523
     ]
    ]
   }
  },
  {
   "type": "Feature",
   "properties": {
    "kind": "closure",
    "name": "Cesta na Brdo - Rožna dolina, C. II",
    "note": "med Potjo za Brdom in Rožna dolina, C.XV",
    "start": "2026-10-18T09:15",
    "end": "2026-10-18T13:10",
    "length_m": 1591
   },
   "geometry": {
    "type": "LineString",
    "coordinates": [
     [
      14.46149196302675,
      46.04719506242478
     ],
     [
      14.46412682249376,
      46.04732544622355
     ],
     [
      14.46526929045342,
      46.0473757099575
     ],
     [
      14.46607000472936,
      46.04732067452067
     ],
     [
      14.46682703172415,
      46.04718101878015
     ],
     [
      14.46796470197603,
      46.04673054346311
     ],
     [
      14.4703826004884,
      46.04571854491138
     ],
     [
      14.4717844874744,
      46.04539584561242
     ],
     [
      14.47381208565615,
      46.04515659807612
     ],
     [
      14.47499986782379,
      46.04494554376867
     ],
     [
      14.47671396482064,
      46.04470966275196
     ],
     [
      14.47758909341025,
      46.04469521708304
     ],
     [
      14.47999459525165,
      46.04488020815643
     ],
     [
      14.48109057406987,
      46.04533263821062
     ]
    ]
   }
  },
  {
   "type": "Feature",
   "properties": {
    "kind": "closure",
    "name": "Cesta v Mestni log",
    "note": "med Koprsko in Barjansko",
    "start": "2026-10-18T10:00",
    "end": "2026-10-18T12:55",
    "length_m": 1283
   },
   "geometry": {
    "type": "LineString",
    "coordinates": [
     [
      14.48394075028011,
      46.03531239979112
     ],
     [
      14.48665753557694,
      46.03598967384062
     ],
     [
      14.48912950586928,
      46.03660204135901
     ],
     [
      14.49060686697284,
      46.03695387963756
     ],
     [
      14.49421342643937,
      46.03781816879192
     ],
     [
      14.49613099909511,
      46.03827195148353
     ],
     [
      14.49657509259031,
      46.03833437689828
     ],
     [
      14.49739562769475,
      46.03828757722502
     ],
     [
      14.49859363135455,
      46.03823724730951
     ],
     [
      14.49978754141906,
      46.03809688954057
     ]
    ]
   }
  },
  {
   "type": "Feature",
   "properties": {
    "kind": "closure",
    "name": "Drenikova ulica",
    "note": "med Samovo in Aljaževo",
    "start": "2026-10-18T08:45",
    "end": "2026-10-18T11:00",
    "length_m": 620
   },
   "geometry": {
    "type": "LineString",
    "coordinates": [
     [
      14.502707161855,
      46.06634733790631
     ],
     [
      14.50122642627734,
      46.06632194727118
     ],
     [
      14.50029079833654,
      46.06638554037315
     ],
     [
      14.49844142584905,
      46.06664100014179
     ],
     [
      14.49480839897537,
      46.06716269548436
     ]
    ]
   }
  },
  {
   "type": "Feature",
   "properties": {
    "kind": "closure",
    "name": "Dunajska cesta",
    "note": "med Baragovo in cesto 7. septembra",
    "start": "2026-10-18T08:45",
    "end": "2026-10-18T10:45",
    "length_m": 1426
   },
   "geometry": {
    "type": "LineString",
    "coordinates": [
     [
      14.51196769817697,
      46.07673015085614
     ],
     [
      14.51346403501978,
      46.08318671519621
     ],
     [
      14.51367944100701,
      46.08404502256882
     ],
     [
      14.51393721002434,
      46.08533596026881
     ],
     [
      14.51389761484169,
      46.08952382030482
     ]
    ]
   }
  },
  {
   "type": "Feature",
   "properties": {
    "kind": "closure",
    "name": "Dunajska cesta",
    "note": "med Samovo in Baragovo",
    "start": "2026-10-18T08:45",
    "end": "2026-10-18T15:00",
    "length_m": 956
   },
   "geometry": {
    "type": "LineString",
    "coordinates": [
     [
      14.510035915009,
      46.06807645569294
     ],
     [
      14.51199215970553,
      46.07661441514548
     ]
    ]
   }
  },
  {
   "type": "Feature",
   "properties": {
    "kind": "closure",
    "name": "Dunajska cesta",
    "note": "med Tivolsko in Samovo",
    "start": "2026-10-18T08:45",
    "end": "2026-10-18T15:00",
    "length_m": 1186
   },
   "geometry": {
    "type": "LineString",
    "coordinates": [
     [
      14.5060701957281,
      46.05765347168425
     ],
     [
      14.50856541765074,
      46.06357738354428
     ],
     [
      14.51005552367417,
      46.06801037764344
     ]
    ]
   }
  },
  {
   "type": "Feature",
   "properties": {
    "kind": "closure",
    "name": "Goriška ulica - Cesta Ljubljanske brigade",
    "note": "med Aljaževo in ulico Jožeta Jame",
    "start": "2026-10-18T08:45",
    "end": "2026-10-18T11:35",
    "length_m": 2548
   },
   "geometry": {
    "type": "LineString",
    "coordinates": [
     [
      14.49614563563605,
      46.07092137301108
     ],
     [
      14.49000551210048,
      46.07690163787175
     ],
     [
      14.48970721611305,
      46.07710727966875
     ],
     [
      14.48917884612928,
      46.07729420300385
     ],
     [
      14.48919301112642,
      46.07729519834537
     ],
     [
      14.48888337772882,
      46.07757295404473
     ],
     [
      14.48835188568748,
      46.07840863283946
     ],
     [
      14.48757697136715,
      46.07920307689072
     ],
     [
      14.48546017463421,
      46.08124971550146
     ],
     [
      14.48272264776832,
      46.08388196977351
     ],
     [
      14.47689351654159,
      46.08951925277363
     ]
    ]
   }
  },
  {
   "type": "Feature",
   "properties": {
    "kind": "closure",
    "name": "Groharjeva cesta - Riharjeva ulica",
    "note": "med Aškerčevo in Kolezijsko",
    "start": "2026-10-18T09:55",
    "end": "2026-10-18T12:30",
    "length_m": 646
   },
   "geometry": {
    "type": "LineString",
    "coordinates": [
     [
      14.49617154236136,
      46.04719720949936
     ],
     [
      14.49575788891686,
      46.04650138470227
     ],
     [
      14.4962440262315,
      46.0457422262166
     ],
     [
      14.49749511068991,
      46.04388069755975
     ],
     [
      14.4988937536573,
      46.04190555174549
     ]
    ]
   }
  },
  {
   "type": "Feature",
   "properties": {
    "kind": "closure",
    "name": "Hradetskega cesta",
    "note": "med Ižansko cesto in Poljansko cesto",
    "start": "2026-10-18T10:15",
    "end": "2026-10-18T13:45",
    "length_m": 1482
   },
   "geometry": {
    "type": "LineString",
    "coordinates": [
     [
      14.51596345007397,
      46.04254620368678
     ],
     [
      14.51674161426593,
      46.04344613280136
     ],
     [
      14.51711832795621,
      46.04380718887422
     ],
     [
      14.51758754313319,
      46.04402108767954
     ],
     [
      14.518253082656,
      46.04405455993018
     ],
     [
      14.51859512792241,
      46.04399379567541
     ],
     [
      14.51989992048852,
      46.04412806475838
     ],
     [
      14.52107382615454,
      46.04430154575388
     ],
     [
      14.52193334868994,
      46.04443136554629
     ],
     [
      14.52304797836922,
      46.04475016195746
     ],
     [
      14.52369983139701,
      46.04508530580859
     ],
     [
      14.52456750685074,
      46.04574024076072
     ],
     [
      14.52491785605525,
      46.04599137920684
     ],
     [
      14.52557969491087,
      46.04637593846551
     ],
     [
      14.52630288321103,
      46.04684648923209
     ],
     [
      14.52686139396651,
      46.04724006730769
     ],
     [
      14.52746947651129,
      46.04747024621782
     ],
     [
      14.52860592704835,
      46.04778694126261
     ],
     [
      14.52956492199644,
      46.04784231953656
     ],
     [
      14.53056797050299,
      46.04775184848882
     ],
     [
      14.53137583895497,
      46.04780390292424
     ],
     [
      14.53191144901625,
      46.04790961003347
     ],
     [
      14.53217764563832,
      46.0480781365459
     ]
    ]
   }
  },
  {
   "type": "Feature",
   "properties": {
    "kind": "closure",
    "name": "Ižanska cesta",
    "note": "med Orlovo in Hradetckega cesto",
    "start": "2026-10-18T10:15",
    "end": "2026-10-18T13:40",
    "length_m": 674
   },
   "geometry": {
    "type": "LineString",
    "coordinates": [
     [
      14.51323474532395,
      46.03697191637685
     ],
     [
      14.51364746261925,
      46.03965585528663
     ],
     [
      14.51387492829775,
      46.0409420110497
     ],
     [
      14.51408696045398,
      46.04130537326759
     ],
     [
      14.51448494323355,
      46.04172591487428
     ],
     [
      14.51508810020995,
      46.04222885194099
     ],
     [
      14.51582921210563,
      46.04240671167322
     ]
    ]
   }
  },
  {
   "type": "Feature",
   "properties": {
    "kind": "closure",
    "name": "Kajuhova ulica",
    "note": "med Litijsko cesto in Šmartinsko cesto",
    "start": "2026-10-18T10:25",
    "end": "2026-10-18T14:10",
    "length_m": 2274
   },
   "geometry": {
    "type": "LineString",
    "coordinates": [
     [
      14.5383906447775,
      46.04807493795111
     ],
     [
      14.5384427608565,
      46.04917505458764
     ],
     [
      14.53851154988111,
      46.04960484370409
     ],
     [
      14.53885344170347,
      46.05012119023636
     ],
     [
      14.5392371145437,
      46.05053762049486
     ],
     [
      14.53927137039172,
      46.05108759297462
     ],
     [
      14.53905917400238,
      46.051755069629
     ],
     [
      14.53901039565568,
      46.05207366041849
     ],
     [
      14.53901777580567,
      46.05248075608679
     ],
     [
      14.53940538250813,
      46.05306731443602
     ],
     [
      14.5397775755944,
      46.05358112215887
     ],
     [
      14.54018085623604,
      46.05420699326245
     ],
     [
      14.5404156310875,
      46.05474654917808
     ],
     [
      14.54069254746261,
      46.05592310751171
     ],
     [
      14.54023087385956,
      46.05869102026711
     ],
     [
      14.53995631866606,
      46.05991842720654
     ],
     [
      14.53971417598997,
      46.06047160355601
     ],
     [
      14.53925923796372,
      46.06107292996991
     ],
     [
      14.53863659206368,
      46.06193067228233
     ],
     [
      14.53695238326839,
      46.06415177792319
     ],
     [
      14.53556597744405,
      46.0653995662564
     ],
     [
      14.53369462630134,
      46.06691718951067
     ]
    ]
   }
  },
  {
   "type": "Feature",
   "properties": {
    "kind": "closure",
    "name": "Kolezijska ulica - Gerbičeva ulica",
    "note": "med Riharjevo in Koprsko",
    "start": "2026-10-18T10:00",
    "end": "2026-10-18T12:40",
    "length_m": 1294
   },
   "geometry": {
    "type": "LineString",
    "coordinates": [
     [
      14.49884340595563,
      46.04188302898143
     ],
     [
      14.49768382556636,
      46.04162249657601
     ],
     [
      14.49700217933198,
      46.04153635479676
     ],
     [
      14.49644271400322,
      46.04134808838618
     ],
     [
      14.49582726735887,
      46.04105999820899
     ],
     [
      14.49506530397318,
      46.04080821594657
     ],
     [
      14.49343329938262,
      46.04038089210484
     ],
     [
      14.49172741786597,
      46.04015263454292
     ],
     [
      14.49000812100815,
      46.03997172591356
     ],
     [
      14.48721258978466,
      46.03971110929497
     ],
     [
      14.482678769942,
      46.03926326081694
     ]
    ]
   }
  },
  {
   "type": "Feature",
   "properties": {
    "kind": "closure",
    "name": "Kopačeva cesta - Hladnikova cesta - Jurčkova cesta",
    "note": "med Barjansko in Peruzzijevo",
    "start": "2026-10-18T10:05",
    "end": "2026-10-18T13:10",
    "length_m": 2551
   },
   "geometry": {
    "type": "LineString",
    "coordinates": [
     [
      14.49985388035191,
      46.03809237193061
     ],
     [
      14.50145732473795,
      46.03784970436245
     ],
     [
      14.5043893709688,
      46.03707416841657
     ],
     [
      14.50614248806757,
      46.03642927181609
     ],
     [
      14.50824319378547,
      46.03548087327673
     ],
     [
      14.51042054638727,
      46.03448576658873
     ],
     [
      14.51257145544475,
      46.03345204107935
     ],
     [
      14.51626573671998,
      46.0317425506541
     ],
     [
      14.52177823863992,
      46.02918858905598
     ],
     [
      14.52801916115362,
      46.02629624354566
     ]
    ]
   }
  },
  {
   "type": "Feature",
   "properties": {
    "kind": "closure",
    "name": "Koprska ulica",
    "note": "med Gerbičevo in Cesto v Mestni log",
    "start": "2026-10-18T10:00",
    "end": "2026-10-18T12:40",
    "length_m": 442
   },
   "geometry": {
    "type": "LineString",
    "coordinates": [
     [
      14.48266804655472,
      46.03923807878228
     ],
     [
      14.4839447133295,
      46.03533815834556
     ]
    ]
   }
  },
  {
   "type": "Feature",
   "properties": {
    "kind": "closure",
    "name": "Litijska cesta",
    "note": "med Poljansko cesto in Kajuhovo cesto",
    "start": "2026-10-18T10:20",
    "end": "2026-10-18T13:55",
    "length_m": 478
   },
   "geometry": {
    "type": "LineString",
    "coordinates": [
     [
      14.53229255863334,
      46.0480844239637
     ],
     [
      14.53326937924062,
      46.04798232977354
     ],
     [
      14.53432991659228,
      46.04808009280923
     ],
     [
      14.535228698563,
      46.04803316720951
     ],
     [
      14.53618957168737,
      46.04791778784703
     ],
     [
      14.53710675481598,
      46.04793242642017
     ],
     [
      14.53843055349931,
      46.04800505035288
     ]
    ]
   }
  },
  {
   "type": "Feature",
   "properties": {
    "kind": "closure",
    "name": "Ob Dolenjski železnici",
    "note": "med Peruzzijevo in Orlovo ulico",
    "start": "2026-10-18T10:10",
    "end": "2026-10-18T13:30",
    "length_m": 1523
   },
   "geometry": {
    "type": "LineString",
    "coordinates": [
     [
      14.53139914784523,
      46.02940160397115
     ],
     [
      14.52674456871186,
      46.03245816103838
     ],
     [
      14.52568085589108,
      46.03311711138835
     ],
     [
      14.52401016182479,
      46.03403939229423
     ],
     [
      14.52166496852401,
      46.03519943658702
     ],
     [
      14.51846435275132,
      46.03677525320666
     ],
     [
      14.51713512681264,
      46.03753217493212
     ],
     [
      14.51620430334346,
      46.03812848843864
     ]
    ]
   }
  },
  {
   "type": "Feature",
   "properties": {
    "kind": "closure",
    "name": "Orlova ulica",
    "note": "med ob Dolenjski železnici in Ižansko cesto",
    "start": "2026-10-18T10:10",
    "end": "2026-10-18T13:30",
    "length_m": 273
   },
   "geometry": {
    "type": "LineString",
    "coordinates": [
     [
      14.51616455836283,
      46.03810515683
     ],
     [
      14.51401763840817,
      46.03689522135981
     ],
     [
      14.51324035460184,
      46.03693901637103
     ]
    ]
   }
  },
  {
   "type": "Feature",
   "properties": {
    "kind": "closure",
    "name": "Peruzzijeva ulica",
    "note": "med Jurčkovo cesto in Cesto ob Dolenjski železnici",
    "start": "2026-10-18T10:05",
    "end": "2026-10-18T13:10",
    "length_m": 431
   },
   "geometry": {
    "type": "LineString",
    "coordinates": [
     [
      14.52804924197621,
      46.02628788862782
     ],
     [
      14.52803791244488,
      46.02631505033757
     ],
     [
      14.52992744630869,
      46.02797301318441
     ],
     [
      14.53141666852134,
      46.0293834497128
     ]
    ]
   }
  },
  {
   "type": "Feature",
   "properties": {
    "kind": "closure",
    "name": "Pečnikova ulica",
    "note": "med Celovško in Regentovo",
    "start": "2026-10-18T09:00",
    "end": "2026-10-18T11:50",
    "length_m": 622
   },
   "geometry": {
    "type": "LineString",
    "coordinates": [
     [
      14.47369761451868,
      46.08773654955459
     ],
     [
      14.47201343964464,
      46.08689496408084
     ],
     [
      14.47056390503338,
      46.08590679039075
     ],
     [
      14.46905459007752,
      46.08471982474148
     ],
     [
      14.46808707267587,
      46.08375559931271
     ]
    ]
   }
  },
  {
   "type": "Feature",
   "properties": {
    "kind": "closure",
    "name": "Pot Roberta Blinca",
    "note": "med Večno potjo in Pot za Brdom",
    "start": "2026-10-18T09:10",
    "end": "2026-10-18T12:40",
    "length_m": 1099
   },
   "geometry": {
    "type": "LineString",
    "coordinates": [
     [
      14.46617910383681,
      46.05954744237624
     ],
     [
      14.4647802780606,
      46.05901291613451
     ],
     [
      14.46396210213079,
      46.05835665778968
     ],
     [
      14.46333569898829,
      46.05734395463618
     ],
     [
      14.46245942695754,
      46.0564643895322
     ],
     [
      14.46188256334869,
      46.05563764436305
     ],
     [
      14.46169377047634,
      46.05458086697613
     ],
     [
      14.46160860541376,
      46.05348428469265
     ],
     [
      14.46126983755493,
      46.05255848310288
     ],
     [
      14.46085927279588,
      46.0519935671601
     ],
     [
      14.45975934132134,
      46.05119829968164
     ]
    ]
   }
  },
  {
   "type": "Feature",
   "properties": {
    "kind": "closure",
    "name": "Pot za Brdom",
    "note": "med Potjo Roberta Blinca in Cesto na Brdo",
    "start": "2026-10-18T09:10",
    "end": "2026-10-18T12:50",
    "length_m": 474
   },
   "geometry": {
    "type": "LineString",
    "coordinates": [
     [
      14.45978400755596,
      46.05114967622273
     ],
     [
      14.46034321382213,
      46.05081108174319
     ],
     [
      14.46081265696009,
      46.05040726448852
     ],
     [
      14.46108608092586,
      46.04979382910972
     ],
     [
      14.46125726578305,
      46.04866940913782
     ],
     [
      14.46139140379175,
      46.04719313348739
     ]
    ]
   }
  },
  {
   "type": "Feature",
   "properties": {
    "kind": "closure",
    "name": "Regentova cesta",
    "note": "med Pečnikovo in Majorja Lavriča",
    "start": "2026-10-18T09:05",
    "end": "2026-10-18T11:55",
    "length_m": 837
   },
   "geometry": {
    "type": "LineString",
    "coordinates": [
     [
      14.46803694547704,
      46.08373716718706
     ],
     [
      14.46920066872908,
      46.08212118654086
     ],
     [
      14.46994997251098,
      46.08105663233419
     ],
     [
      14.47122417495953,
      46.07922160080508
     ],
     [
      14.47199355050283,
      46.07821253710608
     ],
     [
      14.47301998433654,
      46.07701709972568
     ]
    ]
   }
  },
  {
   "type": "Feature",
   "properties": {
    "kind": "closure",
    "name": "Rožna dolina, C. III",
    "note": "med Škrabčevo in Šestovo",
    "start": "2026-10-18T09:35",
    "end": "2026-10-18T13:20",
    "length_m": 175
   },
   "geometry": {
    "type": "LineString",
    "coordinates": [
     [
      14.48517693430843,
      46.04873233125401
     ],
     [
      14.48561080777279,
      46.04778714609407
     ],
     [
      14.48591955105407,
      46.04723589110124
     ]
    ]
   }
  },
  {
   "type": "Feature",
   "properties": {
    "kind": "closure",
    "name": "Rožna dolina, C. VI",
    "note": "med Rožna dolina, C.IX in Rožna dolina, C.III",
    "start": "2026-10-18T09:30",
    "end": "2026-10-18T13:15",
    "length_m": 231
   },
   "geometry": {
    "type": "LineString",
    "coordinates": [
     [
      14.48238891665805,
      46.04795100512288
     ],
     [
      14.48322319381171,
      46.04823425879091
     ],
     [
      14.48441265974308,
      46.04857227638114
     ],
     [
      14.48514693780605,
      46.048760466536
     ]
    ]
   }
  },
  {
   "type": "Feature",
   "properties": {
    "kind": "closure",
    "name": "Savska cesta",
    "note": "med Šmartinsko in Linhartovo oz. rondo 1",
    "start": "2026-10-18T10:30",
    "end": "2026-10-18T14:30",
    "length_m": 501
   },
   "geometry": {
    "type": "LineString",
    "coordinates": [
     [
      14.52422535812533,
      46.06219247094107
     ],
     [
      14.52479592482941,
      46.06291597569377
     ],
     [
      14.52540056663819,
      46.06412061345932
     ],
     [
      14.52579501774869,
      46.06499989496383
     ],
     [
      14.52642130748062,
      46.06644083602195
     ]
    ]
   }
  },
  {
   "type": "Feature",
   "properties": {
    "kind": "closure",
    "name": "Slovenska cesta",
    "note": "med Gosposvetsko in Tivolsko",
    "start": "2026-10-18T08:45",
    "end": "2026-10-18T15:00",
    "length_m": 379
   },
   "geometry": {
    "type": "LineString",
    "coordinates": [
     [
      14.50448054437039,
      46.05440329847459
     ],
     [
      14.50478807521844,
      46.05494337159438
     ],
     [
      14.50596493111571,
      46.05766770637465
     ]
    ]
   }
  },
  {
   "type": "Feature",
   "properties": {
    "kind": "closure",
    "name": "Slovenčeva ulica - Podmilščakova ulica",
    "note": "med cesto 7. septembra in Samovo",
    "start": "2026-10-18T08:45",
    "end": "2026-10-18T11:00",
    "length_m": 2665
   },
   "geometry": {
    "type": "LineString",
    "coordinates": [
     [
      14.50777855189619,
      46.0900245412432
     ],
     [
      14.50763403705415,
      46.08912735522554
     ],
     [
      14.50792971230594,
      46.08821730745917
     ],
     [
      14.50755190616239,
      46.0842432146294
     ],
     [
      14.5075189174849,
      46.08367944637047
     ],
     [
      14.50749452282638,
      46.08309911853169
     ],
     [
      14.50702834708959,
      46.08078906249568
     ],
     [
      14.50633595589801,
      46.07840068287372
     ],
     [
      14.50593536937422,
      46.07745769483675
     ],
     [
      14.50475382695539,
      46.07496628324574
     ],
     [
      14.50420145287222,
      46.07371170928677
     ],
     [
      14.50411022527278,
      46.07341634182267
     ],
     [
      14.50407196593906,
      46.07340826915047
     ],
     [
      14.5039239678294,
      46.07225797240364
     ],
     [
      14.50344965058124,
      46.06893038994171
     ],
     [
      14.50289219859331,
      46.06705163257131
     ],
     [
      14.50283610161736,
      46.06634591909319
     ]
    ]
   }
  },
  {
   "type": "Feature",
   "properties": {
    "kind": "closure",
    "name": "Tržaška cesta",
    "note": "med Šestovo in Aškerčevo ulico",
    "start": "2026-10-18T09:40",
    "end": "2026-10-18T13:20",
    "length_m": 645
   },
   "geometry": {
    "type": "LineString",
    "coordinates": [
     [
      14.48758684437983,
      46.04491562236584
     ],
     [
      14.48885066012017,
      46.04529982576235
     ],
     [
      14.49191636487737,
      46.04631979913782
     ],
     [
      14.49510079581513,
      46.04743741734372
     ]
    ]
   }
  },
  {
   "type": "Feature",
   "properties": {
    "kind": "closure",
    "name": "Ul. Jožeta Jame",
    "note": "med Cesto Ljubljanske brigade in Celovško",
    "start": "2026-10-18T09:00",
    "end": "2026-10-18T11:35",
    "length_m": 309
   },
   "geometry": {
    "type": "LineString",
    "coordinates": [
     [
      14.47681949568888,
      46.08951470846365
     ],
     [
      14.4748516797474,
      46.08879870623383
     ],
     [
      14.47443726679555,
      46.08852665880006
     ],
     [
      14.47381565397423,
      46.08780345886306
     ]
    ]
   }
  },
  {
   "type": "Feature",
   "properties": {
    "kind": "closure",
    "name": "Vodnikova cesta",
    "note": "med Majorja Lavriča in Šišensko",
    "start": "2026-10-18T09:05",
    "end": "2026-10-18T12:00",
    "length_m": 894
   },
   "geometry": {
    "type": "LineString",
    "coordinates": [
     [
      14.47310737082538,
      46.07691491901594
     ],
     [
      14.47353982329633,
      46.07649188627629
     ],
     [
      14.47560193947479,
      46.07451430050738
     ],
     [
      14.47604999668836,
      46.07388106564485
     ],
     [
      14.47746241251278,
      46.0718577540202
     ],
     [
      14.47777105475424,
      46.07147063187829
     ],
     [
      14.47867475686105,
      46.07083026302804
     ],
     [
      14.4796536651914,
      46.07037596309166
     ]
    ]
   }
  },
  {
   "type": "Feature",
   "properties": {
    "kind": "closure",
    "name": "Šestova ulica",
    "note": "med Rožna dolina, C.II - Tržaška cesta",
    "start": "2026-10-18T09:35",
    "end": "2026-10-18T13:20",
    "length_m": 277
   },
   "geometry": {
    "type": "LineString",
    "coordinates": [
     [
      14.48593261735971,
      46.04718543916716
     ],
     [
      14.48622264745387,
      46.04680715647668
     ],
     [
      14.48685947206715,
      46.0459693215493
     ],
     [
      14.4875481621638,
      46.04494598530262
     ]
    ]
   }
  },
  {
   "type": "Feature",
   "properties": {
    "kind": "closure",
    "name": "Šišenska cesta - Večna pot",
    "note": "med Vodnikovo in Pot Roberta Blinca",
    "start": "2026-10-18T09:05",
    "end": "2026-10-18T12:25",
    "length_m": 1647
   },
   "geometry": {
    "type": "LineString",
    "coordinates": [
     [
      14.47962401007686,
      46.07032615260302
     ],
     [
      14.47840663045291,
      46.06923417220429
     ],
     [
      14.47738116198575,
      46.06839794367377
     ],
     [
      14.47615005437953,
      46.06770653097881
     ],
     [
      14.47521196994598,
      46.06723282882831
     ],
     [
      14.47466908750924,
      46.06680593499665
     ],
     [
      14.47434397348441,
      46.06603419716632
     ],
     [
      14.47402667575962,
      46.06482520277061
     ],
     [
      14.47375321492774,
      46.06443024315471
     ],
     [
      14.47320925663629,
      46.0641073341511
     ],
     [
      14.47015527717851,
      46.06336192667347
     ],
     [
      14.46954647450142,
      46.06304684333771
     ],
     [
      14.46869430766656,
      46.06198179582572
     ],
     [
      14.46684949796803,
      46.06022982060873
     ],
     [
      14.46632507638066,
      46.05955872425034
     ]
    ]
   }
  },
  {
   "type": "Feature",
   "properties": {
    "kind": "closure",
    "name": "Štajerska cesta 1. rondo - 2. rondo",
    "note": "med Linhartovo in Kranjčevo",
    "start": "2026-10-18T10:30",
    "end": "2026-10-18T14:30",
    "length_m": 374
   },
   "geometry": {
    "type": "LineString",
    "coordinates": [
     [
      14.52641722967807,
      46.06651657236976
     ],
     [
      14.52622215830543,
      46.06670536746606
     ],
     [
      14.52636784293545,
      46.06695459072199
     ],
     [
      14.52652370961601,
      46.06705468191926
     ],
     [
      14.52588109994208,
      46.06974717167694
     ]
    ]
   }
  },
  {
   "type": "Feature",
   "properties": {
    "kind": "closure",
    "name": "Štajerska cesta 2. rondo - 3. rondo",
    "note": "med Kranjčevo in Božičevo",
    "start": "2026-10-18T10:30",
    "end": "2026-10-18T14:40",
    "length_m": 629
   },
   "geometry": {
    "type": "LineString",
    "coordinates": [
     [
      14.52576353236001,
      46.06976540440061
     ],
     [
      14.52557140246542,
      46.06996792715362
     ],
     [
      14.52572166380535,
      46.07014704200649
     ],
     [
      14.52523609529329,
      46.07163877001137
     ],
     [
      14.52491646569038,
      46.07271829453869
     ],
     [
      14.52476091648639,
      46.07348674239038
     ],
     [
      14.52469288540526,
      46.0741912715783
     ],
     [
      14.52467875468083,
      46.075049879053
     ],
     [
      14.52445790521187,
      46.07527154714113
     ]
    ]
   }
  },
  {
   "type": "Feature",
   "properties": {
    "kind": "closure",
    "name": "Rožna dolina, C. VIII",
    "note": "med Rožna dolina, C.XV in Rožna dolina, C.IX",
    "start": "2026-10-18T09:15",
    "end": "2026-10-18T13:15",
    "length_m": 180
   },
   "geometry": {
    "type": "LineString",
    "coordinates": [
     [
      14.48155394274164,
      46.04911903191726
     ],
     [
      14.47944846450816,
      46.04841666112084
     ]
    ]
   }
  },
  {
   "type": "Feature",
   "properties": {
    "kind": "closure",
    "name": "Rožna dolina, C. XV",
    "note": "med Rožna dolina, C.II in Rožna dolina, C.VIII",
    "start": "2026-10-18T09:15",
    "end": "2026-10-18T13:10",
    "length_m": 360
   },
   "geometry": {
    "type": "LineString",
    "coordinates": [
     [
      14.47943262842086,
      46.04838787054871
     ],
     [
      14.48060723507432,
      46.04624691300751
     ],
     [
      14.48107909880209,
      46.04534316744341
     ]
    ]
   }
  },
  {
   "type": "Feature",
   "properties": {
    "kind": "closure",
    "name": "Šmartinska cesta",
    "note": "med Kajuhovo in Flajšmanovo ulico",
    "start": "2026-10-18T10:30",
    "end": "2026-10-18T14:30",
    "length_m": 370
   },
   "geometry": {
    "type": "LineString",
    "coordinates": [
     [
      14.53368211647373,
      46.06693799335756
     ],
     [
      14.52977786065097,
      46.0650041558503
     ]
    ]
   }
  },
  {
   "type": "Feature",
   "properties": {
    "kind": "closure",
    "name": "Pokopališka ulica",
    "note": "med Šmartinsko in Kavčičevo ulico",
    "start": "2026-10-18T10:30",
    "end": "2026-10-18T14:30",
    "length_m": 243
   },
   "geometry": {
    "type": "LineString",
    "coordinates": [
     [
      14.52975150185145,
      46.06498449017609
     ],
     [
      14.53142720409423,
      46.06312387684822
     ]
    ]
   }
  },
  {
   "type": "Feature",
   "properties": {
    "kind": "closure",
    "name": "Kavčičeva ulica",
    "note": "med Rožičevo ulico in Središko ulico",
    "start": "2026-10-18T10:30",
    "end": "2026-10-18T14:30",
    "length_m": 340
   },
   "geometry": {
    "type": "LineString",
    "coordinates": [
     [
      14.53141078981867,
      46.06309511797848
     ],
     [
      14.53027123861397,
      46.06253890035823
     ],
     [
      14.5296132510798,
      46.06222688136597
     ],
     [
      14.52927685070042,
      46.06205238071047
     ],
     [
      14.52782947132177,
      46.06131516330433
     ]
    ]
   }
  },
  {
   "type": "Feature",
   "properties": {
    "kind": "closure",
    "name": "Središka ulica",
    "note": "med Kavčičevo ulico in Šmartinsko cesto",
    "start": "2026-10-18T10:30",
    "end": "2026-10-18T14:30",
    "length_m": 240
   },
   "geometry": {
    "type": "LineString",
    "coordinates": [
     [
      14.52782544749372,
      46.06132741916768
     ],
     [
      14.52560894714112,
      46.06284080236997
     ]
    ]
   }
  },
  {
   "type": "Feature",
   "properties": {
    "kind": "closure",
    "name": "Šmartinska cesta",
    "note": "med Središko ulico in Savsko ulico",
    "start": "2026-10-18T10:30",
    "end": "2026-10-18T14:30",
    "length_m": 130
   },
   "geometry": {
    "type": "LineString",
    "coordinates": [
     [
      14.52558703652382,
      46.06285192002404
     ],
     [
      14.52421745701406,
      46.0621661145138
     ]
    ]
   }
  },
  {
   "type": "Feature",
   "properties": {
    "kind": "closure",
    "name": "Dunajska cesta",
    "note": "med Samovo in Baragovo",
    "start": "2026-10-18T08:45",
    "end": "2026-10-18T15:00",
    "length_m": 964
   },
   "geometry": {
    "type": "LineString",
    "coordinates": [
     [
      14.50992782086245,
      46.06805401065985
     ],
     [
      14.51192348409286,
      46.07665848690315
     ]
    ]
   }
  },
  {
   "type": "Feature",
   "properties": {
    "kind": "closure",
    "name": "Rožna dolina, C. IX",
    "note": "med Rožna dolina, C.VIII in Rožna dolina, C.VI",
    "start": "2026-10-18T09:30",
    "end": "2026-10-18T13:15",
    "length_m": 144
   },
   "geometry": {
    "type": "LineString",
    "coordinates": [
     [
      14.48155379143441,
      46.04911398378977
     ],
     [
      14.48236938623029,
      46.04794036082931
     ]
    ]
   }
  },
  {
   "type": "Feature",
   "properties": {
    "kind": "closure",
    "name": "Gosposvetska cesta",
    "note": "med Slovensko cesto in Bleiweisovo cesto",
    "start": "2026-10-18T08:45",
    "end": "2026-10-18T15:00",
    "length_m": 332
   },
   "geometry": {
    "type": "LineString",
    "coordinates": [
     [
      14.50446723672604,
      46.05441551353934
     ],
     [
      14.50354611685233,
      46.05511017615394
     ],
     [
      14.50263188669789,
      46.05567188567019
     ],
     [
      14.50139576930258,
      46.05651655478573
     ]
    ]
   }
  },
  {
   "type": "Feature",
   "properties": {
    "kind": "closure",
    "name": "Bleiweisova cesta",
    "note": "med Gosposvetsko cesto in Aškerčevo cesto",
    "start": "2026-10-18T08:45",
    "end": "2026-10-18T15:00",
    "length_m": 1190
   },
   "geometry": {
    "type": "LineString",
    "coordinates": [
     [
      14.50133208278171,
      46.05647902979008
     ],
     [
      14.49962195295724,
      46.05478080104037
     ],
     [
      14.49840043177282,
      46.0534381132153
     ],
     [
      14.49710012535725,
      46.05201124082173
     ],
     [
      14.49625114869342,
      46.05121208771232
     ],
     [
      14.49524229266185,
      46.05058788657993
     ],
     [
      14.49456014540119,
      46.05006806276711
     ],
     [
      14.49426792571402,
      46.04947987327618
     ],
     [
      14.49421135415635,
      46.04902430664967
     ],
     [
      14.49433639998064,
      46.04855868679571
     ],
     [
      14.49463193994304,
      46.04809867996254
     ],
     [
      14.49508816514452,
      46.04746928739878
     ]
    ]
   }
  },
  {
   "type": "Feature",
   "properties": {
    "kind": "closure",
    "name": "Slovenska cesta",
    "note": "med Gosposvetsko in Aškerčevo",
    "start": "2026-10-18T06:00",
    "end": "2026-10-18T20:00",
    "length_m": 937
   },
   "geometry": {
    "type": "LineString",
    "coordinates": [
     [
      14.50099514477391,
      46.04631265463541
     ],
     [
      14.50129750371706,
      46.04734172359242
     ],
     [
      14.50139670163893,
      46.04812788032526
     ],
     [
      14.50197557774406,
      46.04903925132795
     ],
     [
      14.50259376713472,
      46.05008078858981
     ],
     [
      14.50281254476425,
      46.05075729628995
     ],
     [
      14.50347079924426,
      46.052356005595
     ],
     [
      14.50389546389376,
      46.05331025310026
     ],
     [
      14.50449343319961,
      46.05438821912543
     ]
    ]
   }
  },
  {
   "type": "Feature",
   "properties": {
    "kind": "crossing",
    "name": "Center: Slovenska - Tivolska - Trg OF",
    "note": "Varovan prehod čez traso, čakanje do 20 min.",
    "start": "2026-10-18T08:00",
    "end": "2026-10-18T15:30"
   },
   "geometry": {
    "type": "Point",
    "coordinates": [
     14.505979,
     46.057659
    ]
   }
  },
  {
   "type": "Feature",
   "properties": {
    "kind": "crossing",
    "name": "Bežigrad: Bežigrad - Dunajska cesta - Linhartova ulica",
    "note": "Varovan prehod čez traso, čakanje do 20 min.",
    "start": "2026-10-18T08:45",
    "end": "2026-10-18T15:00"
   },
   "geometry": {
    "type": "Point",
    "coordinates": [
     14.508443,
     46.063614
    ]
   }
  },
  {
   "type": "Feature",
   "properties": {
    "kind": "crossing",
    "name": "Bežigrad: Samova ulica - Dunajska cesta - Topniška ulica",
    "note": "Varovan prehod čez traso, čakanje do 20 min.",
    "start": "2026-10-18T08:45",
    "end": "2026-10-18T15:00"
   },
   "geometry": {
    "type": "Point",
    "coordinates": [
     14.5095635,
     46.0681015
    ]
   }
  },
  {
   "type": "Feature",
   "properties": {
    "kind": "crossing",
    "name": "Bežigrad: Posavskega ulica - Dunajska cesta - Dimičeva ulica",
    "note": "Varovan prehod čez traso, čakanje do 20 min.",
    "start": "2026-10-18T08:45",
    "end": "2026-10-18T15:00"
   },
   "geometry": {
    "type": "Point",
    "coordinates": [
     14.5104821,
     46.0715645
    ]
   }
  },
  {
   "type": "Feature",
   "properties": {
    "kind": "crossing",
    "name": "Bežigrad: povezovalna cesta med Slovenčevo in Dunajsko - Dunajska cesta - Cesta Janeza Porente",
    "note": "Varovan prehod čez traso, čakanje do 20 min.",
    "start": "2026-10-18T08:45",
    "end": "2026-10-18T10:15"
   },
   "geometry": {
    "type": "Point",
    "coordinates": [
     14.513484,
     46.083232
    ]
   }
  },
  {
   "type": "Feature",
   "properties": {
    "kind": "crossing",
    "name": "Bežigrad: Slovenčeva ulica - Bevkova cesta",
    "note": "Varovan prehod čez traso, čakanje do 20 min.",
    "start": "2026-10-18T08:45",
    "end": "2026-10-18T10:45"
   },
   "geometry": {
    "type": "Point",
    "coordinates": [
     14.507538,
     46.08397
    ]
   }
  },
  {
   "type": "Feature",
   "properties": {
    "kind": "crossing",
    "name": "Šiška: Goriška ulica - Litostrojska ulica",
    "note": "Varovan prehod čez traso, čakanje do 20 min.",
    "start": "2026-10-18T09:00",
    "end": "2026-10-18T11:40"
   },
   "geometry": {
    "type": "Point",
    "coordinates": [
     14.489172,
     46.077312
    ]
   }
  },
  {
   "type": "Feature",
   "properties": {
    "kind": "crossing",
    "name": "Šiška: Pečnikova ulica - Celovška cesta - Ulica Jožeta Jame",
    "note": "Varovan prehod čez traso, čakanje do 20 min.",
    "start": "2026-10-18T09:00",
    "end": "2026-10-18T11:45"
   },
   "geometry": {
    "type": "Point",
    "coordinates": [
     14.473747,
     46.087778
    ]
   }
  },
  {
   "type": "Feature",
   "properties": {
    "kind": "crossing",
    "name": "Šiška: Plešičeva ulica - Regentova cesta - Korenčanova ulica",
    "note": "Varovan prehod čez traso, čakanje do 20 min.",
    "start": "2026-10-18T09:00",
    "end": "2026-10-18T11:50"
   },
   "geometry": {
    "type": "Point",
    "coordinates": [
     14.4696847,
     46.0811271
    ]
   }
  },
  {
   "type": "Feature",
   "properties": {
    "kind": "crossing",
    "name": "Šiška: Regentova cesta - Majorja Lavriča ulica",
    "note": "Varovan prehod čez traso, čakanje do 20 min.",
    "start": "2026-10-18T09:00",
    "end": "2026-10-18T12:00"
   },
   "geometry": {
    "type": "Point",
    "coordinates": [
     14.4727291,
     46.0769311
    ]
   }
  },
  {
   "type": "Feature",
   "properties": {
    "kind": "crossing",
    "name": "Šiška: Draga - Šišenska ulica - Pod hribom",
    "note": "Varovan prehod čez traso, čakanje do 20 min.",
    "start": "2026-10-18T09:00",
    "end": "2026-10-18T12:10"
   },
   "geometry": {
    "type": "Point",
    "coordinates": [
     14.476162,
     46.067726
    ]
   }
  },
  {
   "type": "Feature",
   "properties": {
    "kind": "crossing",
    "name": "Vič: Gregorinova ulica - Rožna dolina cesta II",
    "note": "Varovan prehod čez traso, čakanje do 20 min.",
    "start": "2026-10-18T09:10",
    "end": "2026-10-18T13:00"
   },
   "geometry": {
    "type": "Point",
    "coordinates": [
     14.4802174,
     46.0447683
    ]
   }
  },
  {
   "type": "Feature",
   "properties": {
    "kind": "crossing",
    "name": "Trnovo: Barjanska cesta - Cesta v Mestni log",
    "note": "Varovan prehod čez traso, čakanje do 20 min.",
    "start": "2026-10-18T10:00",
    "end": "2026-10-18T13:00"
   },
   "geometry": {
    "type": "Point",
    "coordinates": [
     14.4994102,
     46.0382606
    ]
   }
  },
  {
   "type": "Feature",
   "properties": {
    "kind": "crossing",
    "name": "Fužine: Zaloška cesta - Kajuhova ulica",
    "note": "Varovan prehod čez traso, čakanje do 20 min.",
    "start": "2026-10-18T10:25",
    "end": "2026-10-18T14:00"
   },
   "geometry": {
    "type": "Point",
    "coordinates": [
     14.5401416,
     46.0559907
    ]
   }
  }
 ]
}